H1 CPF 01  gfz 2021 10 19 12  7922 terrasarx 
H2 0702601  6201 31698    2021 10 19 12 59 42 2021 10 24 00 00 42   120 1 1  0 0 0
H9
10 0 59508  39582.000000  0   -1999357.121   6333173.889  -1840999.343
10 0 59508  39702.000000  0   -1880158.308   6560077.450   -955681.683
10 0 59508  39822.000000  0   -1725181.942   6670022.561    -53555.688
10 0 59508  39942.000000  0   -1539185.967   6660434.252    849511.609
10 0 59508  40062.000000  0   -1327504.930   6530938.314   1737621.015
10 0 59508  40182.000000  0   -1095916.391   6283376.976   2595131.797
10 0 59508  40302.000000  0    -850499.103   5921780.621   3406944.363
10 0 59508  40422.000000  0    -597486.936   5452297.483   4158771.565
10 0 59508  40542.000000  0    -343122.314   4883082.629   4837395.436
10 0 59508  40662.000000  0     -93510.621   4224143.494   5430901.806
10 0 59508  40782.000000  0     145518.866   3487154.746   5928884.453
10 0 59508  40902.000000  0     368541.913   2685243.592   6322624.790
10 0 59508  41022.000000  0     570656.765   1832748.631   6605238.174
10 0 59508  41142.000000  0     747587.609    944959.279   6771788.435
10 0 59508  41262.000000  0     895771.933     37839.295   6819368.053
10 0 59508  41382.000000  0    1012430.649   -872258.990   6747145.827
10 0 59508  41502.000000  0    1095619.754  -1768889.111   6556381.556
10 0 59508  41622.000000  0    1144262.826  -2635807.240   6250405.770
10 0 59508  41742.000000  0    1158163.805  -3457267.792   5834565.531
10 0 59508  41862.000000  0    1137999.030  -4218311.772   5316134.703
10 0 59508  41982.000000  0    1085290.832  -4905041.597   4704192.165
10 0 59508  42102.000000  0    1002362.038  -5504881.035   4009469.959
10 0 59508  42222.000000  0     892271.901  -6006815.637   3244169.468
10 0 59508  42342.000000  0     758734.930  -6401605.077   2421747.793
10 0 59508  42462.000000  0     606023.383  -6681962.653   1556679.778
10 0 59508  42582.000000  0     438856.557  -6842698.279    664199.759
10 0 59508  42702.000000  0     262279.478  -6880822.748   -239973.818
10 0 59508  42822.000000  0      81533.036  -6795605.233  -1139926.125
10 0 59508  42942.000000  0     -98079.095  -6588583.373  -2019835.308
10 0 59508  43062.000000  0    -271323.820  -6263528.900  -2864257.298
10 0 59508  43182.000000  0    -433169.357  -5826370.122  -3658401.912
10 0 59508  43302.000000  0    -578910.274  -5285072.089  -4388394.577
10 0 59508  43422.000000  0    -704283.317  -4649477.827  -5041516.701
10 0 59508  43542.000000  0    -805571.521  -3931117.491  -5606421.069
10 0 59508  43662.000000  0    -879694.328  -3142989.390  -6073320.356
10 0 59508  43782.000000  0    -924281.981  -2299317.945  -6434146.218
10 0 59508  43902.000000  0    -937733.225  -1415293.552  -6682677.171
10 0 59508  44022.000000  0    -919255.624   -506800.179  -6814635.225
10 0 59508  44142.000000  0    -868887.762    409866.237  -6827751.758
10 0 59508  44262.000000  0    -787502.498   1318283.399  -6721801.102
10 0 59508  44382.000000  0    -676792.243   2202189.136  -6498603.998
10 0 59508  44502.000000  0    -539236.341   3045765.213  -6162000.205
10 0 59508  44622.000000  0    -378050.123   3833916.483  -5717790.928
10 0 59508  44742.000000  0    -197116.434   4552540.182  -5173648.444
10 0 59508  44862.000000  0       -901.199   5188780.480  -4538995.185
10 0 59508  44982.000000  0     205645.708   5731265.595  -3824851.577
10 0 59508  45102.000000  0     417202.982   6170320.789  -3043653.391
10 0 59508  45222.000000  0     628201.459   6498152.537  -2209041.690
10 0 59508  45342.000000  0     832956.203   6709000.054  -1335627.519
10 0 59508  45462.000000  0    1025804.069   6799248.761   -438734.701
10 0 59508  45582.000000  0    1201243.403   6767502.143    465873.979
10 0 59508  45702.000000  0    1354072.097   6614608.482   1362281.420
10 0 59508  45822.000000  0    1479519.431   6343642.729   2234704.079
10 0 59508  45942.000000  0    1573369.233   5959844.851   3067777.945
10 0 59508  46062.000000  0    1632071.715   5470515.294   3846836.777
10 0 59508  46182.000000  0    1652840.208   4884868.644   4558176.545
10 0 59508  46302.000000  0    1633731.697   4213850.431   5189300.459
10 0 59508  46422.000000  0    1573706.239   3469920.208   5729137.422
10 0 59508  46542.000000  0    1472667.524   2666812.606   6168230.571
10 0 59508  46662.000000  0    1331482.671   1819277.549   6498898.645
10 0 59508  46782.000000  0    1151980.971    942804.074   6715364.584
10 0 59508  46902.000000  0     936931.714     53334.681   6813849.390
10 0 59508  47022.000000  0     690001.729   -833023.208   6792634.036
10 0 59508  47142.000000  0     415692.686  -1700288.799   6652089.089
10 0 59508  47262.000000  0     119258.925  -2532895.893   6394668.606
10 0 59508  47382.000000  0    -193392.731  -3315973.361   6024869.760
10 0 59508  47502.000000  0    -515818.354  -4035611.796   5549156.382
10 0 59508  47622.000000  0    -841165.909  -4679111.677   4975852.071
10 0 59508  47742.000000  0   -1162317.161  -5235213.730   4315003.707
10 0 59508  47862.000000  0   -1472040.410  -5694306.423   3578210.673
10 0 59508  47982.000000  0   -1763149.046  -6048601.806   2778422.488
10 0 59508  48102.000000  0   -2028663.326  -6292276.400   1929711.086
10 0 59508  48222.000000  0   -2261971.768  -6421574.745   1047019.858
10 0 59508  48342.000000  0   -2456986.273  -6434871.609    145893.946
10 0 59508  48462.000000  0   -2608287.947  -6332691.668   -757801.650
10 0 59508  48582.000000  0   -2711260.036  -6117685.645  -1648170.212
10 0 59508  48702.000000  0   -2762204.879  -5794563.653  -2509571.212
10 0 59508  48822.000000  0   -2758441.751  -5369987.697  -3326902.031
10 0 59508  48942.000000  0   -2698382.643  -4852425.629  -4085866.910
10 0 59508  49062.000000  0   -2581584.531  -4251971.806  -4773226.322
10 0 59508  49182.000000  0   -2408777.897  -3580140.727  -5377023.126
10 0 59508  49302.000000  0   -2181871.710  -2849638.599  -5886782.994
10 0 59508  49422.000000  0   -1903934.619  -2074117.491  -6293686.842
10 0 59508  49542.000000  0   -1579152.137  -1267917.031  -6590712.479
10 0 59508  49662.000000  0   -1212762.391   -445799.634  -6772743.979
10 0 59508  49782.000000  0    -810972.122    377316.052  -6836649.678
10 0 59508  49902.000000  0    -380852.765   1186619.279  -6781329.973
10 0 59508  50022.000000  0      69781.193   1967666.786  -6607733.879
10 0 59508  50142.000000  0     532509.268   2706633.920  -6318845.691
10 0 59508  50262.000000  0     998458.947   3390556.130  -5919640.926
10 0 59508  50382.000000  0    1458471.821   4007555.222  -5417008.375
10 0 59508  50502.000000  0    1903279.482   4547046.833  -4819642.369
10 0 59508  50622.000000  0    2323687.672   4999927.740  -4137904.202
10 0 59508  50742.000000  0    2710764.230   5358737.607  -3383651.667
10 0 59508  50862.000000  0    3056027.271   5617791.330  -2570040.867
10 0 59508  50982.000000  0    3351630.316   5773279.498  -1711301.125
10 0 59508  51102.000000  0    3590538.981   5823332.886   -822486.478
10 0 59508  51222.000000  0    3766694.104   5768048.911     80791.986
10 0 59508  51342.000000  0    3875157.138   5609478.412    982646.725
10 0 59508  51462.000000  0    3912234.403   5351572.391   1867200.910
10 0 59508  51582.000000  0    3875576.888   5000091.430   2718875.463
10 0 59508  51702.000000  0    3764252.693   4562479.691   3522673.484
10 0 59508  51822.000000  0    3578788.726   4047702.282   4264450.109
10 0 59508  51942.000000  0    3321185.060   3466057.758   4931164.803
10 0 59508  52062.000000  0    2994894.984   2828966.187   5511113.914
10 0 59508  52182.000000  0    2604776.374   2148737.357   5994131.887
10 0 59508  52302.000000  0    2157018.040   1438328.495   6371764.221
10 0 59508  52422.000000  0    1659038.192    711093.397   6637409.963
10 0 59508  52542.000000  0    1119358.428    -19469.585   6786430.006
10 0 59508  52662.000000  0     547456.552   -739966.709   6816223.838
10 0 59508  52782.000000  0     -46400.283  -1437354.782   6726272.919
10 0 59508  52902.000000  0    -651340.092  -2099177.028   6518148.614
10 0 59508  53022.000000  0   -1256084.797  -2713785.682   6195485.366
10 0 59508  53142.000000  0   -1849158.146  -3270546.955   5763919.900
10 0 59508  53262.000000  0   -2419101.744  -3760027.010   5231000.063
10 0 59508  53382.000000  0   -2954698.414  -4174156.817   4606060.753
10 0 59508  53502.000000  0   -3445197.086  -4506371.067   3900065.433
10 0 59508  53622.000000  0   -3880531.864  -4751717.513   3125416.213
10 0 59508  53742.000000  0   -4251530.791  -4906935.243   2295736.888
10 0 59508  53862.000000  0   -4550111.589  -4970500.280   1425631.804
10 0 59508  53982.000000  0   -4769458.697  -4942635.574    530423.675
10 0 59508  54102.000000  0   -4904176.595  -4825285.410   -374123.246
10 0 59508  54222.000000  0   -4950415.850  -4622054.936  -1272089.530
10 0 59508  54342.000000  0   -4905967.568  -4338115.588  -2147690.559
10 0 59508  54462.000000  0   -4770323.476  -3980078.429  -2985562.141
10 0 59508  54582.000000  0   -4544701.077  -3555840.257  -3771034.416
10 0 59508  54702.000000  0   -4232034.651  -3074407.630  -4490389.579
10 0 59508  54822.000000  0   -3836932.534  -2545702.580  -5131099.139
10 0 59508  54942.000000  0   -3365602.013  -1980355.073  -5682035.910
10 0 59508  55062.000000  0   -2825744.888  -1389487.536  -6133658.227
10 0 59508  55182.000000  0   -2226426.031   -784495.554  -6478164.806
10 0 59508  55302.000000  0   -1577916.831   -176829.495  -6709618.027
10 0 59508  55422.000000  0    -891518.321    422218.338  -6824034.280
10 0 59508  55542.000000  0    -179367.662   1001717.869  -6819444.882
10 0 59508  55662.000000  0     545771.457   1551295.632  -6695926.051
10 0 59508  55782.000000  0    1270731.028   2061315.273  -6455599.672
10 0 59508  55902.000000  0    1982173.469   2523044.221  -6102601.569
10 0 59508  56022.000000  0    2666832.513   2928802.405  -5643017.889
99
